start=new Date('2022-05-22T00:00:00.000Z').valueOf();
sats=[{"TLE_LINE1":"1 51745U 22016AH  22141.91667824 -.00051200  00000-0 -32189-2 0  9991","RCS_SIZE":"LARGE","OBJECT_NAME":"STARLINK-3449","LAUNCH_DATE":"2022-02-21","MEAN_MOTION":"15.08873301","FILE":"3457577","APOAPSIS":"540.858","EPHEMERIS_TYPE":"0","BSTAR":"-0.00321890000000","ARG_OF_PERICENTER":"55.5758","NORAD_CAT_ID":"51745","OBJECT_ID":"2022-016AH","TIME_SYSTEM":"UTC","PERIOD":"95.435","CLASSIFICATION_TYPE":"U","GP_ID":"204193976","SEMIMAJOR_AXIS":"6917.779","REF_FRAME":"TEME","ECCENTRICITY":"0.00017550","MEAN_ANOMALY":"12.3118","SITE":"AFETR","ELEMENT_SET_NO":"999","MEAN_ELEMENT_THEORY":"SGP4","CENTER_NAME":"EARTH","MEAN_MOTION_DOT":"-0.00051200","TLE_LINE2":"2 51745  53.2124  69.0753 0001755  55.5758  12.3118 15.08873301  1300","RA_OF_ASC_NODE":"69.0753","EPOCH":"2022-05-21T22:00:00.999936","OBJECT_TYPE":"PAYLOAD","MEAN_MOTION_DDOT":"0.0000000000000","PERIAPSIS":"538.430","INCLINATION":"53.2124","COUNTRY_CODE":"US","DECAY_DATE":null,"REV_AT_EPOCH":"130"},{"ELEMENT_SET_NO":"999","MEAN_ANOMALY":"84.5885","SITE":"AFETR","CENTER_NAME":"EARTH","MEAN_MOTION_DOT":"-0.00718884","MEAN_ELEMENT_THEORY":"SGP4","OBJECT_TYPE":"PAYLOAD","TLE_LINE2":"2 51746  53.2176  60.9989 0001549  49.9575  84.5885 15.36909916  1309","RA_OF_ASC_NODE":"60.9989","EPOCH":"2022-05-21T22:00:00.999936","INCLINATION":"53.2176","COUNTRY_CODE":"US","DECAY_DATE":null,"REV_AT_EPOCH":"130","MEAN_MOTION_DDOT":"0.0000000000000","PERIAPSIS":"454.197","LAUNCH_DATE":"2022-02-21","MEAN_MOTION":"15.36909916","FILE":"3457577","APOAPSIS":"456.314","TLE_LINE1":"1 51746U 22016AJ  22141.91667824 -.00718884  00000-0 -21253-1 0  9999","RCS_SIZE":"LARGE","OBJECT_NAME":"STARLINK-3502","EPHEMERIS_TYPE":"0","BSTAR":"-0.02125300000000","ARG_OF_PERICENTER":"49.9575","OBJECT_ID":"2022-016AJ","NORAD_CAT_ID":"51746","TIME_SYSTEM":"UTC","PERIOD":"93.694","CLASSIFICATION_TYPE":"U","SEMIMAJOR_AXIS":"6833.390","REF_FRAME":"TEME","ECCENTRICITY":"0.00015490","GP_ID":"204195214"},{"MEAN_ELEMENT_THEORY":"SGP4","MEAN_MOTION_DOT":"-0.00047730","CENTER_NAME":"EARTH","SITE":"AFETR","MEAN_ANOMALY":"71.0543","ELEMENT_SET_NO":"999","MEAN_MOTION_DDOT":"0.0000000000000","PERIAPSIS":"538.623","DECAY_DATE":null,"REV_AT_EPOCH":"130","INCLINATION":"53.2157","COUNTRY_CODE":"US","RA_OF_ASC_NODE":"69.0617","EPOCH":"2022-05-21T22:00:00.999936","TLE_LINE2":"2 51747  53.2157  69.0617 0001501  56.8294  71.0543 15.08867472  1301","OBJECT_TYPE":"PAYLOAD","ARG_OF_PERICENTER":"56.8294","EPHEMERIS_TYPE":"0","BSTAR":"-0.00299860000000","RCS_SIZE":"LARGE","OBJECT_NAME":"STARLINK-3446","TLE_LINE1":"1 51747U 22016AK  22141.91667824 -.00047730  00000-0 -29986-2 0  9997","MEAN_MOTION":"15.08867472","FILE":"3457577","APOAPSIS":"540.700","LAUNCH_DATE":"2022-02-21","GP_ID":"204194978","ECCENTRICITY":"0.00015010","SEMIMAJOR_AXIS":"6917.796","REF_FRAME":"TEME","PERIOD":"95.436","CLASSIFICATION_TYPE":"U","NORAD_CAT_ID":"51747","OBJECT_ID":"2022-016AK","TIME_SYSTEM":"UTC"},{"BSTAR":"-0.02096900000000","EPHEMERIS_TYPE":"0","ARG_OF_PERICENTER":"48.5574","LAUNCH_DATE":"2022-02-21","APOAPSIS":"455.164","FILE":"3457577","MEAN_MOTION":"15.37305574","TLE_LINE1":"1 51748U 22016AL  22141.91667824 -.00718508  00000-0 -20969-1 0  9997","OBJECT_NAME":"STARLINK-3501","RCS_SIZE":"LARGE","REF_FRAME":"TEME","SEMIMAJOR_AXIS":"6832.218","ECCENTRICITY":"0.00015820","GP_ID":"204194213","NORAD_CAT_ID":"51748","OBJECT_ID":"2022-016AL","TIME_SYSTEM":"UTC","CLASSIFICATION_TYPE":"U","PERIOD":"93.670","CENTER_NAME":"EARTH","MEAN_MOTION_DOT":"-0.00718508","MEAN_ELEMENT_THEORY":"SGP4","ELEMENT_SET_NO":"999","MEAN_ANOMALY":"99.6407","SITE":"AFETR","COUNTRY_CODE":"US","INCLINATION":"53.2176","REV_AT_EPOCH":"130","DECAY_DATE":null,"PERIAPSIS":"453.002","MEAN_MOTION_DDOT":"0.0000000000000","OBJECT_TYPE":"PAYLOAD","TLE_LINE2":"2 51748  53.2176  61.0181 0001582  48.5574  99.6407 15.37305574  1306","EPOCH":"2022-05-21T22:00:00.999936","RA_OF_ASC_NODE":"61.0181"},{"ARG_OF_PERICENTER":"50.9165","EPHEMERIS_TYPE":"0","BSTAR":"-0.00054372000000","RCS_SIZE":"LARGE","OBJECT_NAME":"STARLINK-3451","TLE_LINE1":"1 51749U 22016AM  22141.91667824 -.00008934  00000-0 -54372-3 0  9990","MEAN_MOTION":"15.08850970","FILE":"3457577","APOAPSIS":"540.990","LAUNCH_DATE":"2022-02-21","GP_ID":"204194463","ECCENTRICITY":"0.00018470","SEMIMAJOR_AXIS":"6917.847","REF_FRAME":"TEME","PERIOD":"95.437","CLASSIFICATION_TYPE":"U","NORAD_CAT_ID":"51749","TIME_SYSTEM":"UTC","OBJECT_ID":"2022-016AM","MEAN_ELEMENT_THEORY":"SGP4","MEAN_MOTION_DOT":"-0.00008934","CENTER_NAME":"EARTH","SITE":"AFETR","MEAN_ANOMALY":"271.7456","ELEMENT_SET_NO":"999","MEAN_MOTION_DDOT":"0.0000000000000","PERIAPSIS":"538.434","DECAY_DATE":null,"REV_AT_EPOCH":"130","INCLINATION":"53.2124","COUNTRY_CODE":"US","RA_OF_ASC_NODE":"69.0782","EPOCH":"2022-05-21T22:00:00.999936","TLE_LINE2":"2 51749  53.2124  69.0782 0001847  50.9165 271.7456 15.08850970  1302","OBJECT_TYPE":"PAYLOAD"},{"MEAN_MOTION_DDOT":"0.0000000000000","PERIAPSIS":"451.873","INCLINATION":"53.2176","COUNTRY_CODE":"US","DECAY_DATE":null,"REV_AT_EPOCH":"130","TLE_LINE2":"2 51750  53.2176  61.0370 0001519  53.8355 107.6459 15.37701309  1308","RA_OF_ASC_NODE":"61.0370","EPOCH":"2022-05-21T22:00:00.999936","OBJECT_TYPE":"PAYLOAD","MEAN_ELEMENT_THEORY":"SGP4","CENTER_NAME":"EARTH","MEAN_MOTION_DOT":"-0.00718212","MEAN_ANOMALY":"107.6459","SITE":"AFETR","ELEMENT_SET_NO":"999","GP_ID":"204194728","SEMIMAJOR_AXIS":"6831.046","REF_FRAME":"TEME","ECCENTRICITY":"0.00015190","NORAD_CAT_ID":"51750","TIME_SYSTEM":"UTC","OBJECT_ID":"2022-016AN","PERIOD":"93.646","CLASSIFICATION_TYPE":"U","EPHEMERIS_TYPE":"0","BSTAR":"-0.02069100000000","ARG_OF_PERICENTER":"53.8355","TLE_LINE1":"1 51750U 22016AN  22141.91667824 -.00718212  00000-0 -20691-1 0  9994","OBJECT_NAME":"STARLINK-3505","RCS_SIZE":"MEDIUM","LAUNCH_DATE":"2022-02-21","FILE":"3457577","MEAN_MOTION":"15.37701309","APOAPSIS":"453.948"},{"CLASSIFICATION_TYPE":"U","PERIOD":"93.682","NORAD_CAT_ID":"51751","OBJECT_ID":"2022-016AP","TIME_SYSTEM":"UTC","ECCENTRICITY":"0.00015150","SEMIMAJOR_AXIS":"6832.804","REF_FRAME":"TEME","GP_ID":"204195465","FILE":"3457577","MEAN_MOTION":"15.37107724","APOAPSIS":"455.704","LAUNCH_DATE":"2022-02-21","OBJECT_NAME":"STARLINK-3506","RCS_SIZE":"LARGE","TLE_LINE1":"1 51751U 22016AP  22141.91667824 -.00718638  00000-0 -21109-1 0  9992","ARG_OF_PERICENTER":"52.9217","EPHEMERIS_TYPE":"0","BSTAR":"-0.02110900000000","OBJECT_TYPE":"PAYLOAD","RA_OF_ASC_NODE":"61.0084","EPOCH":"2022-05-21T22:00:00.999936","TLE_LINE2":"2 51751  53.2176  61.0084 0001515  52.9217  88.4965 15.37107724  1303","DECAY_DATE":null,"REV_AT_EPOCH":"130","INCLINATION":"53.2176","COUNTRY_CODE":"US","MEAN_MOTION_DDOT":"0.0000000000000","PERIAPSIS":"453.634","ELEMENT_SET_NO":"999","SITE":"AFETR","MEAN_ANOMALY":"88.4965","MEAN_MOTION_DOT":"-0.00718638","CENTER_NAME":"EARTH","MEAN_ELEMENT_THEORY":"SGP4"},{"NORAD_CAT_ID":"51752","TIME_SYSTEM":"UTC","OBJECT_ID":"2022-016AQ","CLASSIFICATION_TYPE":"U","PERIOD":"93.634","SEMIMAJOR_AXIS":"6830.460","REF_FRAME":"TEME","ECCENTRICITY":"0.00015710","GP_ID":"204193727","LAUNCH_DATE":"2022-02-21","MEAN_MOTION":"15.37899158","FILE":"3457577","APOAPSIS":"453.398","TLE_LINE1":"1 51752U 22016AQ  22141.91667824 -.00717975  00000-0 -20550-1 0  9995","RCS_SIZE":"MEDIUM","OBJECT_NAME":"STARLINK-3511","EPHEMERIS_TYPE":"0","BSTAR":"-0.02055000000000","ARG_OF_PERICENTER":"51.6745","OBJECT_TYPE":"PAYLOAD","TLE_LINE2":"2 51752  53.2176  61.0464 0001571  51.6745 116.3102 15.37899158  1303","RA_OF_ASC_NODE":"61.0464","EPOCH":"2022-05-21T22:00:00.999936","INCLINATION":"53.2176","COUNTRY_CODE":"US","DECAY_DATE":null,"REV_AT_EPOCH":"130","MEAN_MOTION_DDOT":"0.0000000000000","PERIAPSIS":"451.252","ELEMENT_SET_NO":"999","MEAN_ANOMALY":"116.3102","SITE":"AFETR","CENTER_NAME":"EARTH","MEAN_MOTION_DOT":"-0.00717975","MEAN_ELEMENT_THEORY":"SGP4"},{"MEAN_MOTION_DDOT":"0.0000000000000","PERIAPSIS":"452.492","DECAY_DATE":null,"REV_AT_EPOCH":"130","INCLINATION":"53.2176","COUNTRY_CODE":"US","RA_OF_ASC_NODE":"61.0275","EPOCH":"2022-05-21T22:00:00.999936","TLE_LINE2":"2 51753  53.2176  61.0275 0001470  56.4625  98.4233 15.37503504  1304","OBJECT_TYPE":"PAYLOAD","MEAN_ELEMENT_THEORY":"SGP4","MEAN_MOTION_DOT":"-0.00718457","CENTER_NAME":"EARTH","SITE":"AFETR","MEAN_ANOMALY":"98.4233","ELEMENT_SET_NO":"999","GP_ID":"204193977","ECCENTRICITY":"0.00014700","SEMIMAJOR_AXIS":"6831.631","REF_FRAME":"TEME","PERIOD":"93.658","CLASSIFICATION_TYPE":"U","NORAD_CAT_ID":"51753","TIME_SYSTEM":"UTC","OBJECT_ID":"2022-016AR","ARG_OF_PERICENTER":"56.4625","EPHEMERIS_TYPE":"0","BSTAR":"-0.02083300000000","RCS_SIZE":"LARGE","OBJECT_NAME":"STARLINK-3507","TLE_LINE1":"1 51753U 22016AR  22141.91667824 -.00718457  00000-0 -20833-1 0  9996","MEAN_MOTION":"15.37503504","FILE":"3457577","APOAPSIS":"454.501","LAUNCH_DATE":"2022-02-21"},{"TLE_LINE1":"1 51754U 22016AS  22141.91667824 -.00717968  00000-0 -20321-1 0  9995","RCS_SIZE":"LARGE","OBJECT_NAME":"STARLINK-3457","LAUNCH_DATE":"2022-02-21","FILE":"3457577","MEAN_MOTION":"15.38241240","APOAPSIS":"452.354","EPHEMERIS_TYPE":"0","BSTAR":"-0.02032100000000","ARG_OF_PERICENTER":"54.3456","TIME_SYSTEM":"UTC","NORAD_CAT_ID":"51754","OBJECT_ID":"2022-016AS","CLASSIFICATION_TYPE":"U","PERIOD":"93.613","GP_ID":"204195215","SEMIMAJOR_AXIS":"6829.447","REF_FRAME":"TEME","ECCENTRICITY":"0.00015260","MEAN_ANOMALY":"124.8971","SITE":"AFETR","ELEMENT_SET_NO":"999","MEAN_ELEMENT_THEORY":"SGP4","CENTER_NAME":"EARTH","MEAN_MOTION_DOT":"-0.00717968","TLE_LINE2":"2 51754  53.2177  61.0623 0001526  54.3456 124.8971 15.38241240  1304","RA_OF_ASC_NODE":"61.0623","EPOCH":"2022-05-21T22:00:00.999936","OBJECT_TYPE":"PAYLOAD","MEAN_MOTION_DDOT":"0.0000000000000","PERIAPSIS":"450.270","INCLINATION":"53.2177","COUNTRY_CODE":"US","DECAY_DATE":null,"REV_AT_EPOCH":"130"}];
